[{"OBJECT_NAME":"STARLINK-36068","OBJECT_ID":"2025-280AA","EPOCH":"2026-03-09T23:39:32.549760","MEAN_MOTION":14.98335041,"ECCENTRICITY":0.00024521,"INCLINATION":70.0027,"RA_OF_ASC_NODE":333.566,"ARG_OF_PERICENTER":259.1288,"MEAN_ANOMALY":100.9596,"EPHEMERIS_TYPE":0,"CLASSIFICATION_TYPE":"U","NORAD_CAT_ID":66845,"ELEMENT_SET_NO":999,"REV_AT_EPOCH":1612,"BSTAR":0.00043628706,"MEAN_MOTION_DOT":5.117e-5,"MEAN_MOTION_DDOT":0},{"OBJECT_NAME":"CZ-6A DEB","OBJECT_ID":"2024-140JQ","EPOCH":"2026-03-09T16:05:49.477056","MEAN_MOTION":15.15394204,"ECCENTRICITY":0.00800164,"INCLINATION":89.0638,"RA_OF_ASC_NODE":284.0631,"ARG_OF_PERICENTER":105.771,"MEAN_ANOMALY":255.2376,"EPHEMERIS_TYPE":0,"CLASSIFICATION_TYPE":"U","NORAD_CAT_ID":60861,"ELEMENT_SET_NO":999,"REV_AT_EPOCH":8511,"BSTAR":0.0025246282,"MEAN_MOTION_DOT":0.00051962,"MEAN_MOTION_DDOT":0}]
